SAUDISAT 1C (SO-50)     
1 27607U 02058C   26176.51686208  .00000938  00000+0  12783-3 0  9998
2 27607  64.5519 103.2137 0075072 260.9225  98.3381 14.83063362265694
SAUDISAT 2              
1 28371U 04025F   26176.54641451  .00000247  00000+0  66358-4 0  9998
2 28371  98.5508 176.7444 0023440 271.2500  88.6012 14.56688292166965
SAUDISAT 3              
1 31118U 07012B   26176.41894385  .00000235  00000+0  46058-4 0  9994
2 31118  98.1457 126.8249 0014177 196.1513 163.9244 14.71429856 28958
PISAT                   
1 41784U 16059B   26176.52220681  .00000884  00000+0  15796-3 0  9993
2 41784  97.8179 176.6169 0029079 175.8973 184.2477 14.68996607520961
FLYING LAPTOP           
1 42831U 17042G   26176.58425787  .00003160  00000+0  24975-3 0  9999
2 42831  97.4721 331.7960 0019945  94.9706 265.3796 15.01195026487717
SALSAT                  
1 46495U 20068K   26176.51768004  .00008873  00000+0  30898-3 0  9993
2 46495  97.8852 180.0899 0007802 272.5783  87.4563 15.29908924316636
