OBJECT_NAME,OBJECT_ID,EPOCH,MEAN_MOTION,ECCENTRICITY,INCLINATION,RA_OF_ASC_NODE,ARG_OF_PERICENTER,MEAN_ANOMALY,EPHEMERIS_TYPE,CLASSIFICATION_TYPE,NORAD_CAT_ID,ELEMENT_SET_NO,REV_AT_EPOCH,BSTAR,MEAN_MOTION_DOT,MEAN_MOTION_DDOT
SAUDISAT 1C (SO-50),2002-058C,2026-06-25T12:24:16.883712,14.83063362,.00750726,64.5519,103.2137,260.9225,98.3381,0,U,27607,999,26569,.12783055E-3,.938E-5,0
SAUDISAT 2,2004-025F,2026-06-25T13:06:50.213664,14.56688292,.00234402,98.5508,176.7444,271.2500,88.6012,0,U,28371,999,16696,.66358478E-4,.247E-5,0
SAUDISAT 3,2007-012B,2026-06-25T10:03:16.748640,14.71429856,.00141773,98.1457,126.8249,196.1513,163.9244,0,U,31118,999,2895,.46058382E-4,.235E-5,0
PISAT,2016-059B,2026-06-25T12:31:58.668384,14.68996607,.0029079,97.8179,176.6169,175.8973,184.2477,0,U,41784,999,52096,.15795571E-3,.884E-5,0
FLYING LAPTOP,2017-042G,2026-06-25T14:01:19.879968,15.01195026,.00199452,97.4721,331.7960,94.9706,265.3796,0,U,42831,999,48771,.24974874E-3,.316E-4,0
SALSAT,2020-068K,2026-06-25T12:25:27.555456,15.29908924,.00078024,97.8852,180.0899,272.5783,87.4563,0,U,46495,999,31663,.3089847E-3,.8873E-4,0
